H1 CPF 01  gfz 2022 02 15 01  5461 tandemx   
H2 1003001  6202 36605    2022 02 15 00 59 42 2022 02 20 00 00 42   120 1 1  0 0 0
H9
10 0 59627  62622.000000  0   -4355287.886    -14424.469  -5344385.585
10 0 59627  62742.000000  0   -3626880.367    206267.593  -5859885.147
10 0 59627  62862.000000  0   -2831835.856    410050.663  -6272994.504
10 0 59627  62982.000000  0   -1984323.349    592353.059  -6576585.275
10 0 59627  63102.000000  0   -1099465.594    749235.119  -6765429.488
10 0 59627  63222.000000  0    -193071.323    877469.074  -6836279.456
10 0 59627  63342.000000  0     718640.579    974601.877  -6787916.210
10 0 59627  63462.000000  0    1619323.280   1038999.884  -6621170.493
10 0 59627  63582.000000  0    2492789.685   1069876.183  -6338911.069
10 0 59627  63702.000000  0    3323298.205   1067299.321  -5946000.289
10 0 59627  63822.000000  0    4095832.616   1032183.032  -5449217.743
10 0 59627  63942.000000  0    4796372.817    966257.150  -4857154.799
10 0 59627  64062.000000  0    5412153.644    872020.646  -4180077.613
10 0 59627  64182.000000  0    5931904.925    752676.987  -3429758.896
10 0 59627  64302.000000  0    6346067.576    612052.633  -2619281.459
10 0 59627  64422.000000  0    6646982.046    454500.845  -1762815.612
10 0 59627  64542.000000  0    6829043.372    284792.054   -875371.648
10 0 59627  64662.000000  0    6888815.877    107993.578     27466.615
10 0 59627  64782.000000  0    6825106.564    -70657.713    929820.694
10 0 59627  64902.000000  0    6638994.553   -245888.092   1815804.699
10 0 59627  65022.000000  0    6333814.381   -412520.476   2669814.393
10 0 59627  65142.000000  0    5915092.554   -565605.754   3476811.111
10 0 59627  65262.000000  0    5390439.952   -700547.971   4222592.254
10 0 59627  65382.000000  0    4769406.080   -813220.522   4894045.230
10 0 59627  65502.000000  0    4063294.365   -900071.384   5479379.550
10 0 59627  65622.000000  0    3284945.912   -958212.511   5968331.132
10 0 59627  65742.000000  0    2448497.761   -985493.965   6352337.828
10 0 59627  65862.000000  0    1569120.323   -980560.603   6624683.504
10 0 59627  65982.000000  0     662738.038   -942890.593   6780610.766
10 0 59627  66102.000000  0    -254261.749   -872814.175   6817398.231
10 0 59627  66222.000000  0   -1165324.727   -771513.301   6734403.737
10 0 59627  66342.000000  0   -2054026.964   -641001.843   6533074.427
10 0 59627  66462.000000  0   -2904369.306   -484086.290   6216923.110
10 0 59627  66582.000000  0   -3701065.364   -304307.850   5791472.175
10 0 59627  66702.000000  0   -4429819.631   -105866.932   5264163.718
10 0 59627  66822.000000  0   -5077590.053    106468.849   4644235.404
10 0 59627  66942.000000  0   -5632829.286    327471.129   3942563.509
10 0 59627  67062.000000  0   -6085699.438    551570.351   3171475.155
10 0 59627  67182.000000  0   -6428256.177    772985.655   2344533.579
10 0 59627  67302.000000  0   -6654597.989    985862.281   1476297.703
10 0 59627  67422.000000  0   -6760976.293   1184412.564    582061.109
10 0 59627  67542.000000  0   -6745862.842   1363057.644   -322425.343
10 0 59627  67662.000000  0   -6609971.136   1516565.868  -1221240.387
10 0 59627  67782.000000  0   -6356232.444   1640183.719  -2098580.898
10 0 59627  67902.000000  0   -5989728.944   1729757.632  -2939047.086
10 0 59627  68022.000000  0   -5517583.020   1781842.545  -3727919.581
10 0 59627  68142.000000  0   -4948806.502   1793793.492  -4451419.197
10 0 59627  68262.000000  0   -4294116.185   1763839.580  -5096944.903
10 0 59627  68382.000000  0   -3565720.497   1691138.654  -5653286.456
10 0 59627  68502.000000  0   -2777083.891   1575812.021  -6110809.341
10 0 59627  68622.000000  0   -1942673.180   1418958.394  -6461611.401
10 0 59627  68742.000000  0   -1077689.399   1222647.724  -6699647.657
10 0 59627  68862.000000  0    -197793.171    989894.416  -6820822.774
10 0 59627  68982.000000  0     681172.508    724611.652  -6823053.028
10 0 59627  69102.000000  0    1543459.929    431547.047  -6706300.356
10 0 59627  69222.000000  0    2373693.680    116199.385  -6472573.249
10 0 59627  69342.000000  0    3157138.794   -215281.251  -6125895.729
10 0 59627  69462.000000  0    3879959.308   -556209.134  -5672244.898
10 0 59627  69582.000000  0    4529460.738   -899492.657  -5119457.471
10 0 59627  69702.000000  0    5094316.717  -1237776.752  -4477107.068
10 0 59627  69822.000000  0    5564773.940  -1563595.514  -3756349.088
10 0 59627  69942.000000  0    5932830.271  -1869531.568  -2969736.006
10 0 59627  70062.000000  0    6192382.340  -2148379.468  -2131004.850
10 0 59627  70182.000000  0    6339338.143  -2393309.324  -1254839.615
10 0 59627  70302.000000  0    6371691.438  -2598026.058   -356613.231
10 0 59627  70422.000000  0    6289555.744  -2756920.871    547886.552
10 0 59627  70542.000000  0    6095156.237  -2865210.358   1442741.773
10 0 59627  70662.000000  0    5792778.769  -2919059.766   2312194.007
10 0 59627  70782.000000  0    5388675.973  -2915687.182   3140930.597
10 0 59627  70902.000000  0    4890934.554  -2853445.184   3914362.227
10 0 59627  71022.000000  0    4309307.056  -2731877.820   4618883.578
10 0 59627  71142.000000  0    3655014.875  -2551753.958   5242115.204
10 0 59627  71262.000000  0    2940522.635  -2315074.675   5773121.493
10 0 59627  71382.000000  0    2179293.039  -2025053.891   6202598.333
10 0 59627  71502.000000  0    1385527.855  -1686074.724   6523030.783
10 0 59627  71622.000000  0     573899.236  -1303622.098   6728818.683
10 0 59627  71742.000000  0    -240723.443   -884192.480   6816368.523
10 0 59627  71862.000000  0   -1043545.626   -435182.516   6784151.456
10 0 59627  71982.000000  0   -1820114.892     35241.160   6632728.052
10 0 59627  72102.000000  0   -2556579.953    518289.997   6364739.319
10 0 59627  72222.000000  0   -3239937.555   1004716.781   5984864.086
10 0 59627  72342.000000  0   -3858263.855   1484991.444   5499743.004
10 0 59627  72462.000000  0   -4400927.142   1949486.914   4917869.229
10 0 59627  72582.000000  0   -4858777.636   2388672.085   4249445.501
10 0 59627  72702.000000  0   -5224308.867   2793308.094   3506208.821
10 0 59627  72822.000000  0   -5491787.835   3154642.717   2701226.480
10 0 59627  72942.000000  0   -5657351.671   3464599.506   1848666.568
10 0 59627  73062.000000  0   -5719068.504   3715957.797    963545.137
10 0 59627  73182.000000  0   -5676958.036   3902516.906     61454.226
10 0 59627  73302.000000  0   -5532972.834   4019240.818   -841720.561
10 0 59627  73422.000000  0   -5290941.134   4062380.438  -1730088.746
10 0 59627  73542.000000  0   -4956471.167   4029569.724  -2588044.563
10 0 59627  73662.000000  0   -4536818.880   3919892.065  -3400548.063
10 0 59627  73782.000000  0   -4040724.865   3733916.561  -4153392.079
10 0 59627  73902.000000  0   -3478225.316   3473704.324  -4833449.221
10 0 59627  74022.000000  0   -2860442.052   3142785.064  -5428895.312
10 0 59627  74142.000000  0   -2199358.848   2746105.856  -5929406.196
10 0 59627  74262.000000  0   -1507585.914   2289953.029  -6326327.709
10 0 59627  74382.000000  0    -798118.181   1781848.026  -6612813.355
10 0 59627  74502.000000  0     -84093.847   1230421.834  -6783930.946
10 0 59627  74622.000000  0     621443.853    645268.767  -6836738.075
10 0 59627  74742.000000  0    1305778.963     36782.845  -6770328.681
10 0 59627  74862.000000  0    1956747.743   -584023.388  -6585846.413
10 0 59627  74982.000000  0    2562949.267  -1205712.974  -6286466.245
10 0 59627  75102.000000  0    3113942.104  -1816629.930  -5877345.906
10 0 59627  75222.000000  0    3600423.036  -2405112.378  -5365546.666
10 0 59627  75342.000000  0    4014387.728  -2959713.512  -4759923.625
10 0 59627  75462.000000  0    4349266.641  -3469424.568  -4070981.941
10 0 59627  75582.000000  0    4600034.248  -3923893.877  -3310704.665
10 0 59627  75702.000000  0    4763291.658  -4313639.833  -2492352.852
10 0 59627  75822.000000  0    4837318.427  -4630252.251  -1630238.443
10 0 59627  75942.000000  0    4822091.918  -4866577.390   -739474.658
10 0 59627  76062.000000  0    4719271.739  -5016881.362    164292.837
10 0 59627  76182.000000  0    4532149.821  -5076986.307   1065167.180
10 0 59627  76302.000000  0    4265567.863  -5044376.301   1947288.793
10 0 59627  76422.000000  0    3925801.859  -4918269.114   2795123.428
10 0 59627  76542.000000  0    3520419.350  -4699653.800   3593743.232
10 0 59627  76662.000000  0    3058111.484  -4391291.646   4329096.072
10 0 59627  76782.000000  0    2548505.000  -3997680.830   4988256.149
10 0 59627  76902.000000  0    2001959.181  -3524986.555   5559651.547
10 0 59627  77022.000000  0    1429352.240  -2980938.737   6033265.604
10 0 59627  77142.000000  0     841861.871  -2374698.862   6400807.487
10 0 59627  77262.000000  0     250745.424  -1716701.073   6655850.887
10 0 59627  77382.000000  0    -332876.009  -1018469.728   6793939.907
10 0 59627  77502.000000  0    -898225.650   -292415.663   6812662.751
10 0 59627  77622.000000  0   -1435069.050    448384.804   6711690.951
10 0 59627  77742.000000  0   -1933898.776   1190424.840   6492784.672
10 0 59627  77862.000000  0   -2386102.705   1920012.363   6159763.986
10 0 59627  77982.000000  0   -2784113.578   2623522.048   5718446.507
10 0 59627  78102.000000  0   -3121537.495   3287650.858   5176552.150
10 0 59627  78222.000000  0   -3393260.187   3899672.179   4543574.564
10 0 59627  78342.000000  0   -3595527.811   4447684.513   3830620.338
10 0 59627  78462.000000  0   -3726000.554   4920849.226   3050217.456
10 0 59627  78582.000000  0   -3783777.522   5309611.989   2216095.391
10 0 59627  78702.000000  0   -3769391.675   5605901.053   1342940.469
10 0 59627  78822.000000  0   -3684775.359   5803298.455    446133.109
10 0 59627  78942.000000  0   -3533198.225   5897181.690   -458529.963
10 0 59627  79062.000000  0   -3319176.459   5884828.869  -1355124.402
99
